[{"OBJECT_NAME":"STARLINK-5094","OBJECT_ID":"2022-125P","EPOCH":"2026-03-09T21:47:22.890048","MEAN_MOTION":15.08836027,"ECCENTRICITY":0.00011154,"INCLINATION":53.2166,"RA_OF_ASC_NODE":218.2515,"ARG_OF_PERICENTER":89.3412,"MEAN_ANOMALY":270.7708,"EPHEMERIS_TYPE":0,"CLASSIFICATION_TYPE":"U","NORAD_CAT_ID":53977,"ELEMENT_SET_NO":999,"REV_AT_EPOCH":18942,"BSTAR":1.5725436e-5,"MEAN_MOTION_DOT":-3.8e-7,"MEAN_MOTION_DDOT":0},{"OBJECT_NAME":"UPPER FREE FLYER","OBJECT_ID":"2018-099F","EPOCH":"2026-03-09T16:53:56.769792","MEAN_MOTION":15.10728091,"ECCENTRICITY":0.00115819,"INCLINATION":97.4495,"RA_OF_ASC_NODE":120.4613,"ARG_OF_PERICENTER":289.4209,"MEAN_ANOMALY":70.5769,"EPHEMERIS_TYPE":0,"CLASSIFICATION_TYPE":"U","NORAD_CAT_ID":43763,"ELEMENT_SET_NO":999,"REV_AT_EPOCH":39752,"BSTAR":0.00029221901,"MEAN_MOTION_DOT":4.788e-5,"MEAN_MOTION_DDOT":0}]
